{
  "type": "FeatureCollection",
  "features": [
    {
      "type": "Feature",
      "properties": {
        "norad_id": 60182,
        "name": "ALOS-4 (DAICHI-4)",
        "group": "resource",
        "lat": 81.71152297907395,
        "lon": 23.46005959340518,
        "alt_km": 622.523765420965,
        "timestamp": "2025-12-27T17:24:57.051458+00:00",
        "meta_object_name": "ALOS-4 (DAICHI-4)",
        "meta_object_id": "2024-123A",
        "meta_epoch": "2025-12-26T19:55:12.965952",
        "meta_mean_motion": 14.79478137,
        "meta_eccentricity": 0.00014191,
        "meta_inclination": 97.9215,
        "meta_ra_of_asc_node": 95.4758,
        "meta_arg_of_pericenter": 100.4397,
        "meta_mean_anomaly": 259.6975,
        "meta_ephemeris_type": 0,
        "meta_classification_type": "U",
        "meta_norad_cat_id": 60182,
        "meta_element_set_no": 999,
        "meta_rev_at_epoch": 8039,
        "meta_bstar": 0.00030778868,
        "meta_mean_motion_dot": 2.248e-05,
        "meta_mean_motion_ddot": 0,
        "tle_line1": "1 60182U 24123A   25360.83001118  .00002248  00000+0  30779-3 0  9991",
        "tle_line2": "2 60182  97.9215  95.4758 0001419 100.4397 259.6975 14.79478137 80393"
      },
      "geometry": {
        "type": "Point",
        "coordinates": [
          23.46005959340518,
          81.71152297907395
        ]
      }
    },
    {
      "type": "Feature",
      "properties": {
        "norad_id": 60452,
        "name": "LEGION 3",
        "group": "resource",
        "lat": 35.10748638226429,
        "lon": -85.50785572152124,
        "alt_km": 520.6811476683079,
        "timestamp": "2025-12-27T17:24:57.051469+00:00",
        "meta_object_name": "LEGION 3",
        "meta_object_id": "2024-146A",
        "meta_epoch": "2025-12-27T02:56:33.227520",
        "meta_mean_motion": 15.15909819,
        "meta_eccentricity": 0.00157761,
        "meta_inclination": 45.0004,
        "meta_ra_of_asc_node": 233.0201,
        "meta_arg_of_pericenter": 274.8666,
        "meta_mean_anomaly": 85.0412,
        "meta_ephemeris_type": 0,
        "meta_classification_type": "U",
        "meta_norad_cat_id": 60452,
        "meta_element_set_no": 999,
        "meta_rev_at_epoch": 7591,
        "meta_bstar": 0.00033039135,
        "meta_mean_motion_dot": 6.195e-05,
        "meta_mean_motion_ddot": 0,
        "tle_line1": "1 60452U 24146A   25361.12260680  .00006195  00000+0  33039-3 0  9997",
        "tle_line2": "2 60452  45.0004 233.0201 0015776 274.8666  85.0412 15.15909819 75918"
      },
      "geometry": {
        "type": "Point",
        "coordinates": [
          -85.50785572152124,
          35.10748638226429
        ]
      }
    },
    {
      "type": "Feature",
      "properties": {
        "norad_id": 60453,
        "name": "LEGION 4",
        "group": "resource",
        "lat": 35.170989306836304,
        "lon": 6.343936908056093,
        "alt_km": 507.51052706913924,
        "timestamp": "2025-12-27T17:24:57.051479+00:00",
        "meta_object_name": "LEGION 4",
        "meta_object_id": "2024-146B",
        "meta_epoch": "2025-12-27T04:31:30.027072",
        "meta_mean_motion": 15.15986372,
        "meta_eccentricity": 0.00078109,
        "meta_inclination": 45.0397,
        "meta_ra_of_asc_node": 324.4607,
        "meta_arg_of_pericenter": 32.4876,
        "meta_mean_anomaly": 327.6483,
        "meta_ephemeris_type": 0,
        "meta_classification_type": "U",
        "meta_norad_cat_id": 60453,
        "meta_element_set_no": 999,
        "meta_rev_at_epoch": 7477,
        "meta_bstar": 0.0003702879,
        "meta_mean_motion_dot": 6.976e-05,
        "meta_mean_motion_ddot": 0,
        "tle_line1": "1 60453U 24146B   25361.18854198  .00006976  00000+0  37029-3 0  9997",
        "tle_line2": "2 60453  45.0397 324.4607 0007810  32.4876 327.6483 15.15986372 74775"
      },
      "geometry": {
        "type": "Point",
        "coordinates": [
          6.343936908056093,
          35.170989306836304
        ]
      }
    },
    {
      "type": "Feature",
      "properties": {
        "norad_id": 60989,
        "name": "SENTINEL-2C",
        "group": "resource",
        "lat": 67.26676672351314,
        "lon": -84.92371522072887,
        "alt_km": 781.454766026859,
        "timestamp": "2025-12-27T17:24:57.051489+00:00",
        "meta_object_name": "SENTINEL-2C",
        "meta_object_id": "2024-157A",
        "meta_epoch": "2025-12-27T11:51:48.918816",
        "meta_mean_motion": 14.30818428,
        "meta_eccentricity": 0.0001368,
        "meta_inclination": 98.5665,
        "meta_ra_of_asc_node": 73.7631,
        "meta_arg_of_pericenter": 101.7105,
        "meta_mean_anomaly": 258.4231,
        "meta_ephemeris_type": 0,
        "meta_classification_type": "U",
        "meta_norad_cat_id": 60989,
        "meta_element_set_no": 999,
        "meta_rev_at_epoch": 6843,
        "meta_bstar": 7.9815e-05,
        "meta_mean_motion_dot": 1.66e-06,
        "meta_mean_motion_ddot": 0,
        "tle_line1": "1 60989U 24157A   25361.49431619  .00000166  00000+0  79815-4 0  9991",
        "tle_line2": "2 60989  98.5665  73.7631 0001368 101.7105 258.4231 14.30818428 68438"
      },
      "geometry": {
        "type": "Point",
        "coordinates": [
          -84.92371522072887,
          67.26676672351314
        ]
      }
    },
    {
      "type": "Feature",
      "properties": {
        "norad_id": 61735,
        "name": "IONOSFERA-M 1",
        "group": "resource",
        "lat": -57.85109103279312,
        "lon": -114.37467277645264,
        "alt_km": 823.1562486264384,
        "timestamp": "2025-12-27T17:24:57.051500+00:00",
        "meta_object_name": "IONOSFERA-M 1",
        "meta_object_id": "2024-199A",
        "meta_epoch": "2025-12-27T12:37:43.768128",
        "meta_mean_motion": 14.22717351,
        "meta_eccentricity": 2.22e-05,
        "meta_inclination": 98.7395,
        "meta_ra_of_asc_node": 231.2602,
        "meta_arg_of_pericenter": 359.7807,
        "meta_mean_anomaly": 0.3371,
        "meta_ephemeris_type": 0,
        "meta_classification_type": "U",
        "meta_norad_cat_id": 61735,
        "meta_element_set_no": 999,
        "meta_rev_at_epoch": 10329,
        "meta_bstar": 5.1281e-05,
        "meta_mean_motion_dot": 7.1e-07,
        "meta_mean_motion_ddot": 0,
        "tle_line1": "1 61735U 24199A   25361.52620102  .00000071  00000+0  51281-4 0  9990",
        "tle_line2": "2 61735  98.7395 231.2602 0000222 359.7807   0.3371 14.22717351103298"
      },
      "geometry": {
        "type": "Point",
        "coordinates": [
          -114.37467277645264,
          -57.85109103279312
        ]
      }
    },
    {
      "type": "Feature",
      "properties": {
        "norad_id": 61736,
        "name": "IONOSFERA-M 2",
        "group": "resource",
        "lat": 55.043477106839234,
        "lon": 64.0816390058401,
        "alt_km": 809.7690480709143,
        "timestamp": "2025-12-27T17:24:57.051511+00:00",
        "meta_object_name": "IONOSFERA-M 2",
        "meta_object_id": "2024-199B",
        "meta_epoch": "2025-12-27T13:27:35.382816",
        "meta_mean_motion": 14.22719532,
        "meta_eccentricity": 0.0001877,
        "meta_inclination": 98.7394,
        "meta_ra_of_asc_node": 231.2069,
        "meta_arg_of_pericenter": 91.5002,
        "meta_mean_anomaly": 268.6391,
        "meta_ephemeris_type": 0,
        "meta_classification_type": "U",
        "meta_norad_cat_id": 61736,
        "meta_element_set_no": 999,
        "meta_rev_at_epoch": 10642,
        "meta_bstar": 4.984e-05,
        "meta_mean_motion_dot": 6.7e-07,
        "meta_mean_motion_ddot": 0,
        "tle_line1": "1 61736U 24199B   25361.56082619  .00000067  00000+0  49840-4 0  9993",
        "tle_line2": "2 61736  98.7394 231.2069 0001877  91.5002 268.6391 14.22719532106422"
      },
      "geometry": {
        "type": "Point",
        "coordinates": [
          64.0816390058401,
          55.043477106839234
        ]
      }
    },
    {
      "type": "Feature",
      "properties": {
        "norad_id": 63772,
        "name": "BIOMASS",
        "group": "resource",
        "lat": -29.76093884033226,
        "lon": 1.8616674128750037,
        "alt_km": 675.3119930020748,
        "timestamp": "2025-12-27T17:24:57.051522+00:00",
        "meta_object_name": "BIOMASS",
        "meta_object_id": "2025-090A",
        "meta_epoch": "2025-12-27T00:05:53.851200",
        "meta_mean_motion": 14.67535929,
        "meta_eccentricity": 0.00010413,
        "meta_inclination": 98.0692,
        "meta_ra_of_asc_node": 185.8039,
        "meta_arg_of_pericenter": 86.5947,
        "meta_mean_anomaly": 273.5377,
        "meta_ephemeris_type": 0,
        "meta_classification_type": "U",
        "meta_norad_cat_id": 63772,
        "meta_element_set_no": 999,
        "meta_rev_at_epoch": 3543,
        "meta_bstar": 0.0002500388,
        "meta_mean_motion_dot": 1.37e-05,
        "meta_mean_motion_ddot": 0,
        "tle_line1": "1 63772U 25090A   25361.00409550  .00001370  00000+0  25004-3 0  9995",
        "tle_line2": "2 63772  98.0692 185.8039 0001041  86.5947 273.5377 14.67535929 35430"
      },
      "geometry": {
        "type": "Point",
        "coordinates": [
          1.8616674128750037,
          -29.76093884033226
        ]
      }
    }
  ]
}